     2.11           N: GPS NAV DATA                         RINEX VERSION / TYPE
teqc  2019Feb25                         20221121 12:23:22UTCPGM / RUN BY / DATE
OSX ker:10.11.6|Core i5|gcc 4.3 -m64|OSX ker:10.10+|=+      COMMENT
    7.4506D-09  2.2352D-08 -5.9605D-08 -1.1921D-07          ION ALPHA
    8.6016D+04  8.1920D+04 -1.3107D+05 -5.2429D+05          ION BETA
    0.000000000000D+00 9.769962616701D-15   405504     1532 DELTA-UTC: A0,A1,T,W
                                                            END OF HEADER
30 09  5 20  0  0  0.0 1.474823802710D-04 2.728484105319D-12 0.000000000000D+00
    1.260000000000D+02-6.343750000000D+00 5.130213693993D-09 2.000852019358D+00
   -6.537884473801D-07 1.137404167093D-02 5.042180418968D-06 5.153590312958D+03
    2.592000000000D+05 7.264316082001D-08-2.408082444814D+00-2.011656761169D-07
    9.518949005291D-01 2.742187500000D+02 1.416609272879D+00-8.290345326160D-09
    2.428672592533D-11 1.000000000000D+00 1.532000000000D+03 0.000000000000D+00
    2.800000000000D+00 0.000000000000D+00-8.381903171539D-09 1.260000000000D+02
    2.520180000000D+05 4.000000000000D+00
23 09  5 20  0  0  0.0 3.900644369423D-04 1.136868377216D-13 0.000000000000D+00
    6.300000000000D+01-5.762500000000D+01 4.292678807303D-09-1.488341108524D-01
   -3.006309270859D-06 6.083762273192D-03 8.134171366692D-06 5.153611637115D+03
    2.592000000000D+05 7.450580596924D-08 1.829237670017D+00-1.117587089539D-08
    9.702241098200D-01 2.254687500000D+02 2.882562952512D+00-8.081050893921D-09
   -7.750322832055D-11 1.000000000000D+00 1.532000000000D+03 0.000000000000D+00
    2.000000000000D+00 0.000000000000D+00-2.002343535423D-08 6.300000000000D+01
    2.520180000000D+05 4.000000000000D+00
29 09  5 20  0  0  0.0 2.175662666559D-05 3.751665644813D-12 0.000000000000D+00
    1.900000000000D+01-3.868750000000D+01 4.390540026472D-09-2.683031032338D+00
   -2.020969986916D-06 3.425593720749D-03 1.033395528793D-05 5.153685636520D+03
    2.592000000000D+05 2.235174179077D-08-1.292738693104D+00-3.166496753693D-08
    9.596096165752D-01 1.787812500000D+02-1.326604124581D+00-7.884256982379D-09
   -4.825200988989D-10 1.000000000000D+00 1.532000000000D+03 0.000000000000D+00
    2.000000000000D+00 0.000000000000D+00-8.847564458847D-09 1.900000000000D+01
    2.520180000000D+05 4.000000000000D+00
16 09  5 20  0  0  0.0 4.956172779202D-05-3.410605131648D-12 0.000000000000D+00
    1.080000000000D+02-1.459375000000D+01 4.851273503585D-09 2.121080958621D+00
   -4.302710294724D-07 5.346151301637D-03 5.258247256279D-06 5.153543441772D+03
    2.592000000000D+05 1.396983861923D-07-2.343504145451D+00 1.322478055954D-07
    9.682600940223D-01 2.819687500000D+02-3.640541114236D-01-8.274987543589D-09
   -6.178828801592D-11 1.000000000000D+00 1.532000000000D+03 0.000000000000D+00
    2.000000000000D+00 0.000000000000D+00-9.778887033463D-09 1.080000000000D+02
    2.520180000000D+05 4.000000000000D+00
13 09  5 20  0  0  0.0 2.974988892674D-04 9.094947017729D-13 0.000000000000D+00
    8.300000000000D+01-4.946875000000D+01 3.741584423438D-09 6.200277429871D-01
   -2.743676304817D-06 4.119816119783D-03 8.786097168922D-06 5.153708021164D+03
    2.592000000000D+05-2.793967723846D-08 1.881096768580D+00 3.166496753693D-08
    9.947293569390D-01 2.255312500000D+02 1.565364490023D+00-7.781038397196D-09
   -9.857553463812D-11 1.000000000000D+00 1.532000000000D+03 0.000000000000D+00
    2.000000000000D+00 0.000000000000D+00-1.117587089539D-08 8.300000000000D+01
    2.520180000000D+05 4.000000000000D+00
 2 09  5 20  0  0  0.0 1.544686965644D-04 5.684341886081D-13 0.000000000000D+00
    6.900000000000D+01 8.003125000000D+01 4.917704842146D-09-1.452650735020D-02
    4.025176167488D-06 9.066797443666D-03 9.216368198395D-06 5.153657329559D+03
    2.592000000000D+05 2.216547727585D-07-2.839270789996D-01-6.891787052155D-08
    9.416867444842D-01 1.944375000000D+02 2.816546211152D+00-8.417136321799D-09
    1.071473202588D-10 1.000000000000D+00 1.532000000000D+03 0.000000000000D+00
    2.000000000000D+00 0.000000000000D+00-1.722946763039D-08 6.900000000000D+01
    2.520180000000D+05 4.000000000000D+00
24 09  5 20  0  0  0.0 1.901900395751D-04 2.955857780762D-12 0.000000000000D+00
    1.300000000000D+01 8.318750000000D+01 4.420184118411D-09 2.227168379371D+00
    4.364177584648D-06 6.708786007948D-03 9.562820196152D-06 5.153682750702D+03
    2.592000000000D+05-2.235174179077D-08-2.203674007182D-01 3.725290298462D-08
    9.510934452482D-01 1.895937500000D+02-6.496766919962D-01-7.954617056015D-09
    1.178620522847D-10 1.000000000000D+00 1.532000000000D+03 0.000000000000D+00
    2.000000000000D+00 0.000000000000D+00-1.396983861923D-09 1.300000000000D+01
    2.522760000000D+05 4.000000000000D+00
25 09  5 20  0  0  0.0 4.208930768073D-04 1.932676241267D-11 0.000000000000D+00
    9.800000000000D+01 1.334375000000D+01 4.323394372444D-09 2.720272341851D+00
    6.444752216339D-07 1.143241825048D-02 9.501352906227D-06 5.153652950287D+03
    2.592000000000D+05 2.123415470123D-07 2.776703739668D+00 6.705522537231D-08
    9.698083558165D-01 1.986250000000D+02-1.206567020691D+00-7.770323665170D-09
    2.885834492304D-10 1.000000000000D+00 1.532000000000D+03 0.000000000000D+00
    2.800000000000D+00 0.000000000000D+00-7.450580596924D-09 9.800000000000D+01
    2.537460000000D+05 4.000000000000D+00
 6 09  5 20  0  0  0.0 1.294179819524D-04 1.500666257925D-11 0.000000000000D+00
    3.600000000000D+01-4.196875000000D+01 5.157714839526D-09 2.106577239146D+00
   -2.183020114899D-06 5.979641922750D-03 8.666887879372D-06 5.153706281662D+03
    2.592000000000D+05 7.078051567078D-08-1.364006912454D+00-3.166496753693D-08
    9.334208199238D-01 1.905625000000D+02-1.370258349080D+00-8.269630177576D-09
   -5.003779856087D-10 1.000000000000D+00 1.532000000000D+03 0.000000000000D+00
    2.000000000000D+00 0.000000000000D+00-4.656612873077D-09 3.600000000000D+01
    2.550660000000D+05 4.000000000000D+00
21 09  5 20  0  0  0.0 1.306366175413D-05-2.046363078989D-12 0.000000000000D+00
    4.600000000000D+01 8.037500000000D+01 4.788770900101D-09-2.694373843737D+00
    3.959983587265D-06 1.524861576036D-02 9.661540389061D-06 5.153621305466D+03
    2.592000000000D+05-3.166496753693D-08-2.523519935306D-01-2.495944499969D-07
    9.344450293520D-01 1.789062500000D+02-2.605446655403D+00-8.048192382375D-09
    2.482246252663D-10 1.000000000000D+00 1.532000000000D+03 0.000000000000D+00
    2.000000000000D+00 0.000000000000D+00-1.210719347000D-08 4.600000000000D+01
    2.552160000000D+05 4.000000000000D+00
10 09  5 20  0  0  0.0-1.625064760447D-05-5.684341886081D-13 0.000000000000D+00
    9.000000000000D+01 1.415625000000D+01 4.779127641278D-09 9.070461829372D-01
    7.804483175278D-07 8.599972468801D-03 3.626570105553D-06 5.153599805832D+03
    2.592000000000D+05-1.545995473862D-07 8.001378383926D-01 8.568167686462D-08
    9.585194909842D-01 3.089375000000D+02 6.261374799050D-01-8.499282600664D-09
   -6.357407668690D-11 1.000000000000D+00 1.532000000000D+03 0.000000000000D+00
    2.800000000000D+00 0.000000000000D+00-2.793967723846D-09 9.000000000000D+01
    2.558760000000D+05 4.000000000000D+00
 7 09  5 20  0  0  0.0 1.857709139585D-05-6.821210263297D-13 0.000000000000D+00
    6.900000000000D+01 1.700000000000D+01 4.484115352832D-09-1.721035283731D+00
    7.692724466324D-07 2.553570084274D-03 9.331852197647D-06 5.153669607162D+03
    2.592000000000D+05-3.725290298462D-09 2.871168723931D+00-2.607703208923D-08
    9.675754863971D-01 2.062500000000D+02 2.875630850825D+00-7.998547457321D-09
    4.128743407307D-10 1.000000000000D+00 1.532000000000D+03 0.000000000000D+00
    2.000000000000D+00 0.000000000000D+00-1.071020960808D-08 6.900000000000D+01
    2.566560000000D+05 4.000000000000D+00
 3 09  5 20  0  0  0.0 3.952872939408D-04 5.115907697473D-12 0.000000000000D+00
    1.720000000000D+02-3.528125000000D+01 5.470942172416D-09-3.606733428524D-01
   -1.814216375351D-06 1.183083327487D-02 8.320435881615D-06 5.153631568909D+03
    2.592000000000D+05-5.029141902924D-08-1.431559594912D+00 1.713633537292D-07
    9.259188721461D-01 1.978437500000D+02 9.002262856039D-01-8.712505767979D-09
   -4.753769442150D-10 1.000000000000D+00 1.532000000000D+03 0.000000000000D+00
    1.130000000000D+01 0.000000000000D+00-4.190951585770D-09 1.720000000000D+02
    2.567760000000D+05 4.000000000000D+00
